{
"Hospitals":[
{
"id":1,
"name":"Bronglais General Hospital",
"type":"Major Acute",
"open24hrs":true,
"aAndeUnit":"Major A&E",
"address":"Caradoc Road, Aberystwyth",
"postcode":"SY23 1ER",
"mainNumber":"01970 623131",
"wards":[]
},
{
"id":2,
"name":"Glan Clwyd Hospital",
"type":"Major Acute",
"open24hrs":true,
"aAndeUnit":"Major A&E",
"address":"Rhuddlan Road, Bodelwyddan, Rhyl, Denbighshire",
"postcode":"LL18 5UJ",
"mainNumber":"01745 583910",
"wards":[]
},
{
"id":3,
"name":"Glangwili General Hospital",
"type":"Major Acute",
"open24hrs":true,
"aAndeUnit":"Major A&E",
"address":"Dolgwili Road, Glangwili, Carmarthen",
"postcode":"SA31 2AF",
"mainNumber":"01267 235151",
"wards":[]
},
{
"id":4,
"name":"Hereford County Hospital (England)",
"type":"Major Acute",
"open24hrs":true,
"aAndeUnit":"Major A&E",
"address":"Stonebow Road, Hereford",
"postcode":"HR1 2BN",
"mainNumber":"",
"wards":[]
},
{
"id":5,
"name":"Morriston Hospital",
"type":"Major Acute",
"open24hrs":true,
"aAndeUnit":"Major A&E",
"address":"Swansea, Heol Maes Eglwys, Cwmrhydyceirw, Swansea",
"postcode":"SA6 6NL",
"mainNumber":"01792 702222",
"wards":[]
},
{
"id":6,
"name":"Prince Charles Hospital",
"type":"Major Acute",
"open24hrs":true,
"aAndeUnit":"Major A&E",
"address":"Merthyr Tydfil, Mid Glamorgan",
"postcode":"CF47 9DT",
"mainNumber":"01685 721721",
"wards":[]
},
{
"id":7,
"name":"Princess Royal Hospital (England)",
"type":"Major Acute",
"open24hrs":true,
"aAndeUnit":"Major A&E",
"address":"Apley Castle, Grainger Drive, Telford",
"postcode":"TF1 6TF",
"mainNumber":"",
"wards":[]
},
{
"id":8,
"name":"Princess of Wales Hospital",
"type":"Major Acute",
"open24hrs":true,
"aAndeUnit":"Major A&E",
"address":"Coity Road, Bridgend, Mid Glamorgan",
"postcode":"CF31 1RQ",
"mainNumber":"01656 752752",
"wards":[]
},
{
"id":9,
"name":"Royal Glamorgan Hospital",
"type":"Major Acute",
"open24hrs":true,
"aAndeUnit":"Major A&E",
"address":"Ynysmaerdy, Pontyclun, Llantrisant",
"postcode":"CF72 8XR",
"mainNumber":"01443 443443",
"wards":[]
},
{
"id":10,
"name":"Royal Shrewsbury Hospital (England)",
"type":"Major Acute",
"open24hrs":true,
"aAndeUnit":"Major A&E",
"address":"Mytton Oak Road, Shrewsbury",
"postcode":"SY3 8XQ",
"mainNumber":"",
"wards":[]
},
{
"id":11,
"name":"The Grange University Hospital",
"type":"Major Acute",
"open24hrs":true,
"aAndeUnit":"Major A&E",
"address":"Caerleon Road, Cwmbran, Gwent",
"postcode":"NP44 8YN",
"mainNumber":"",
"wards":[]
},
{
"id":12,
"name":"University Hospital of Wales",
"type":"Major Acute",
"open24hrs":true,
"aAndeUnit":"Major A&E",
"address":"Heath Park, Cardiff",
"postcode":"CF14 4XW",
"mainNumber":"029 2074 774",
"wards":[]
},
{
"id":13,
"name":"Withybush General Hospital",
"type":"Major Acute",
"open24hrs":true,
"aAndeUnit":"Major A&E",
"address":"Fishguard Road, Haverfordwest,, Pembrokeshire",
"postcode":"SA61 2PZ",
"mainNumber":"01437 764545",
"wards":[]
},
{
"id":14,
"name":"Wrexham Maelor Hospital",
"type":"Major Acute",
"open24hrs":true,
"aAndeUnit":"Major A&E",
"address":"Croesnewydd Road, Wrexham",
"postcode":"LL13 7TD",
"mainNumber":"01978 291100",
"wards":[]
},
{
"id":15,
"name":"Ysbyty Gwynedd",
"type":"Major Acute",
"open24hrs":true,
"aAndeUnit":"Major A&E",
"address":"Penrhosgarnedd, Bangor, Gwynedd",
"postcode":"LL57 2PW",
"mainNumber":"01248 384384",
"wards":[]
},
{
"id":16,
"name":"Barry Hospital",
"type":"Community",
"open24hrs":false,
"aAndeUnit":"Minor IU",
"address":"Colcot Road, Barry, South Glamorgan",
"postcode":"CF62 8YH",
"mainNumber":"01446 704000",
"wards":[]
},
{
"id":17,
"name":"Brecon War Memorial Hospital",
"type":"Community",
"open24hrs":true,
"aAndeUnit":"Minor IU",
"address":"Cerrigochion Road, Brecon, Powys",
"postcode":"LD3 7NS",
"mainNumber":"01874 622443",
"wards":[]
},
{
"id":18,
"name":"Bryn Beryl Hospital",
"type":"Community",
"open24hrs":false,
"aAndeUnit":"Minor IU",
"address":"Caernarfon Road, Pwllheli, Gwynedd",
"postcode":"LL53 6TT",
"mainNumber":"01758 701122",
"wards":[]
},
{
"id":19,
"name":"Cardigan Integrated Care Centre",
"type":"Community",
"open24hrs":false,
"aAndeUnit":"Minor IU",
"address":"Rhodfa’r Felin, Cardigan",
"postcode":"SA43 1JX",
"mainNumber":"01239 801560",
"wards":[]
},
{
"id":20,
"name":"Denbigh Community Hospital",
"type":"Community",
"open24hrs":false,
"aAndeUnit":"Minor IU",
"address":"Ruthin Road, Denbigh, Denbighshire",
"postcode":"LL16 3ES",
"mainNumber":"03000 850019",
"wards":[]
},
{
"id":21,
"name":"Dolgellau & Barmouth District Hospital",
"type":"Community",
"open24hrs":false,
"aAndeUnit":"Minor IU",
"address":"Dolgellau, Gwynedd",
"postcode":"LL40 1NT",
"mainNumber":"01341 422479",
"wards":[]
},
{
"id":22,
"name":"Holywell Community Hospital",
"type":"Community",
"open24hrs":false,
"aAndeUnit":"Minor IU",
"address":"Halkyn Road, Holywell, Flintshire",
"postcode":"CH8 7TZ",
"mainNumber":"03000 850008",
"wards":[]
},
{
"id":23,
"name":"Llandovery Hospital",
"type":"Community",
"open24hrs":false,
"aAndeUnit":"Minor IU",
"address":"Llanfair Road, Llandovery",
"postcode":"SA20 0LA",
"mainNumber":"01550 722200",
"wards":[]
},
{
"id":24,
"name":"Llandrindod Wells County War Memorial Hospital",
"type":"Community",
"open24hrs":false,
"aAndeUnit":"Minor IU",
"address":"Temple Street, Llandrindod Wells, Radnor, Powys",
"postcode":"LD1 5HF",
"mainNumber":"01597 822951",
"wards":[]
},
{
"id":25,
"name":"Llandudno General Hospital",
"type":"Acute",
"open24hrs":false,
"aAndeUnit":"Minor IU",
"address":"Hospital Road, Llandudno, Conwy",
"postcode":"LL30 1LB",
"mainNumber":"03000 850013",
"wards":[]
},
{
"id":26,
"name":"Ludlow Community Hospital (England)",
"type":"Community",
"open24hrs":false,
"aAndeUnit":"Minor IU",
"address":"Gravel Hill, Ludlow",
"postcode":"SY8 1QX",
"mainNumber":"",
"wards":[]
},
{
"id":27,
"name":"Mold Community Hospital",
"type":"Community",
"open24hrs":false,
"aAndeUnit":"Minor IU",
"address":"Ashgrove, Mold, Flintshire",
"postcode":"CH7 1XG",
"mainNumber":"03000 850006",
"wards":[]
},
{
"id":28,
"name":"Neath Port Talbot Hospital",
"type":"Acute",
"open24hrs":false,
"aAndeUnit":"Minor IU",
"address":"Baglan Way, Port Talbot",
"postcode":"SA12 7BX",
"mainNumber":"01639 862000",
"wards":[]
},
{
"id":29,
"name":"Nevill Hall Hospital",
"type":"Acute",
"open24hrs":true,
"aAndeUnit":"Minor IU",
"address":"Brecon Road, Abergavenny, Gwent",
"postcode":"NP7 7EG",
"mainNumber":"01873 732732",
"wards":[]
},
{
"id":30,
"name":"Oswestry Health Centre (England)",
"type":"Community",
"open24hrs":false,
"aAndeUnit":"Minor IU",
"address":"Thomas Savin Road, Off Gobowen Road, Oswestry",
"postcode":"SY11 1GA",
"mainNumber":"",
"wards":[]
},
{
"id":31,
"name":"Prince Philip Hospital",
"type":"Major Acute",
"open24hrs":true,
"aAndeUnit":"Minor IU",
"address":"Bryngwyn Mawr, Dafen, Llanelli",
"postcode":"SA14 8QF",
"mainNumber":"01554 756567",
"wards":[]
},
{
"id":32,
"name":"Royal Gwent Hospital",
"type":"Acute",
"open24hrs":true,
"aAndeUnit":"Minor IU",
"address":"Cardiff Road, Newport, Gwent",
"postcode":"NP20 2UB",
"mainNumber":"01633 234234",
"wards":[]
},
{
"id":33,
"name":"Tenby Walk-in Centre",
"type":"Community",
"open24hrs":false,
"aAndeUnit":"Minor IU",
"address":"Gas Lane, The Norton, Tenby, Pembrokeshire",
"postcode":"SA70 8AG",
"mainNumber":"01834 840044",
"wards":[]
},
{
"id":34,
"name":"Tywyn Memorial Hospital",
"type":"Community",
"open24hrs":false,
"aAndeUnit":"Minor IU",
"address":"Bryn Hyfryd Road, Tywyn, Gwynedd",
"postcode":"LL36 9HH",
"mainNumber":"03000 850026",
"wards":[]
},
{
"id":35,
"name":"Victoria Memorial Hospital",
"type":"Community",
"open24hrs":true,
"aAndeUnit":"Minor IU",
"address":"Salop Road, Welshpool, Powys",
"postcode":"SY21 7DU",
"mainNumber":"01938 553133",
"wards":[]
},
{
"id":36,
"name":"Ysbyty Alltwen",
"type":"Community",
"open24hrs":true,
"aAndeUnit":"Minor IU",
"address":"Tremadog, Gwynedd",
"postcode":"LL49 9AQ",
"mainNumber":"03000 850 02",
"wards":[]
},
{
"id":37,
"name":"Ysbyty Aneurin Bevan",
"type":"Acute",
"open24hrs":false,
"aAndeUnit":"Minor IU",
"address":"Festival Drive, Ebbw Vale, Blaenau Gwent",
"postcode":"NP23 6GL",
"mainNumber":"01495 363636",
"wards":[]
},
{
"id":38,
"name":"Ysbyty Cwm Cynon",
"type":"Community",
"open24hrs":false,
"aAndeUnit":"Minor IU",
"address":"New Road, Mountain Ash, Rhondda Cynon Taff",
"postcode":"CF45 4BZ",
"mainNumber":"01685 721721",
"wards":[]
},
{
"id":39,
"name":"Ysbyty Cwm Rhondda",
"type":"Community",
"open24hrs":false,
"aAndeUnit":"Minor IU",
"address":"Partridge Road, Llwynypia",
"postcode":"CF40 2LX",
"mainNumber":"01443 430022",
"wards":[]
},
{
"id":40,
"name":"Ysbyty Penrhos Stanley",
"type":"Community",
"open24hrs":false,
"aAndeUnit":"Minor IU",
"address":"Penrhos Beach Road, Holyhead, Anglesey",
"postcode":"LL65 2QA",
"mainNumber":"01407 766000",
"wards":[]
},
{
"id":41,
"name":"Ysbyty Ystrad Fawr",
"type":"Acute",
"open24hrs":false,
"aAndeUnit":"Minor IU",
"address":"Ystrad Fawr Way, Ystrad Mynach, Hengoed",
"postcode":"CF82 7GP",
"mainNumber":"01443 802200",
"wards":[]
},
{
"id":42,
"name":"Ystradgynlais Community Hospital",
"type":"Community",
"open24hrs":false,
"aAndeUnit":"Minor IU",
"address":"Glanrhyd Road, Ystradgynlais, Swansea",
"postcode":"SA9 1AU",
"mainNumber":"01639 844777",
"wards":[]
},
{
"id":43,
"name":"Pontypridd & District Cottage Hospital (Y Bwthyn)",
"type":"Acute",
"open24hrs":false,
"aAndeUnit":"None",
"address":"The Common, Pontypridd, Glamorgan",
"postcode":"CF37 4AL",
"mainNumber":"01443 486222",
"wards":[]
},
{
"id":44,
"name":"St. Woolos Hospital",
"type":"Acute",
"open24hrs":false,
"aAndeUnit":"None",
"address":"Stow Hill, Newport",
"postcode":"NP20 4SZ",
"mainNumber":"01633 234234",
"wards":[]
},
{
"id":45,
"name":"Carmarthenshire Local Committee",
"type":"CHC Local Committee",
"open24hrs":false,
"aAndeUnit":"None",
"address":"103 Lammas Street, Carmarthen",
"postcode":"SA31 3AP",
"mainNumber":"01267 231384",
"wards":[]
},
{
"id":46,
"name":"Ceredigion Local Committee",
"type":"CHC Local Committee",
"open24hrs":false,
"aAndeUnit":"None",
"address":"Merlin House, Parc Merlin, Aberystwyth",
"postcode":"SY23 2NL",
"mainNumber":"01970 624760",
"wards":[]
},
{
"id":47,
"name":"Wrexham Local Committee",
"type":"CHC Local Committee",
"open24hrs":false,
"aAndeUnit":"None",
"address":"Unit 1B and 1D Wilkinson Business Park, Clywedog Road South, Wrexham",
"postcode":"LL13 9AE",
"mainNumber":"01978 356178",
"wards":[]
},
{
"id":48,
"name":"Abergele Clinic",
"type":"Clinic",
"open24hrs":false,
"aAndeUnit":"None",
"address":"Market Street, Abergele, Conwy",
"postcode":"LL22 7BP",
"mainNumber":"01745 823746",
"wards":[]
},
{
"id":49,
"name":"Argyll Road Health Clinic",
"type":"Clinic",
"open24hrs":false,
"aAndeUnit":"None",
"address":"Argyll Road, Llandudno, Conwy",
"postcode":"LL30 1DF",
"mainNumber":"01492 862025",
"wards":[]
},
{
"id":50,
"name":"Bodelwyddan Clinic",
"type":"Clinic",
"open24hrs":false,
"aAndeUnit":"None",
"address":"Ysgol-Faenol, Bodelwyddan, Abergele, Conwy",
"postcode":"LL18 5TG",
"mainNumber":"",
"wards":[]
},
{
"id":51,
"name":"Cerrigydrudion Clinic",
"type":"Clinic",
"open24hrs":false,
"aAndeUnit":"None",
"address":"Kings Road, Cerrigydrudion, Denbighshire",
"postcode":"LL21 9SU",
"mainNumber":"01490 420755",
"wards":[]
},
{
"id":52,
"name":"Colwyn Bay Clinic",
"type":"Clinic",
"open24hrs":false,
"aAndeUnit":"None",
"address":"Myrtle Villa, 19 Nant-Y-Glyn Road, Colwyn Bay, Conwy",
"postcode":"LL29 8AY",
"mainNumber":"01492 593491",
"wards":[]
},
{
"id":53,
"name":"Conwy Health Clinic",
"type":"Clinic",
"open24hrs":false,
"aAndeUnit":"None",
"address":"Muriau Buildings, Rosehill Street, Conwy",
"postcode":"LL32 8LD",
"mainNumber":"01492 593491",
"wards":[]
},
{
"id":54,
"name":"Corwen Clinic",
"type":"Clinic",
"open24hrs":false,
"aAndeUnit":"None",
"address":"Green Lane, Corwen, Wrexham",
"postcode":"LL21 9DN",
"mainNumber":"01490 412470",
"wards":[]
},
{
"id":55,
"name":"Denbigh Clinic",
"type":"Clinic",
"open24hrs":false,
"aAndeUnit":"None",
"address":"Denbigh Infirmary, Ruthin Road, Denbigh, Denbighshire",
"postcode":"LL16 3ES",
"mainNumber":"03000 850019",
"wards":[]
},
{
"id":56,
"name":"Fforddlas Health Centre",
"type":"Clinic",
"open24hrs":false,
"aAndeUnit":"None",
"address":"Fforddlas, Marsh Road, Rhyl, Denbighshire",
"postcode":"LL18 3EP",
"mainNumber":"01745 339431",
"wards":[]
},
{
"id":57,
"name":"Kinmel Bay Clinic",
"type":"Clinic",
"open24hrs":false,
"aAndeUnit":"None",
"address":"57 Foryd Road, Kinmel Bay, Rhyl, Conwy",
"postcode":"LL18 5LU",
"mainNumber":"01745 351522",
"wards":[]
},
{
"id":58,
"name":"Llysfaen Clinic",
"type":"Clinic",
"open24hrs":false,
"aAndeUnit":"None",
"address":"Llysfaen Community Centre, Ysgol Cynfran CP, Dolwyn Road, Llysfaen, Colwyn Bay, Conwy",
"postcode":"LL29 8SS",
"mainNumber":"01492 518128",
"wards":[]
},
{
"id":59,
"name":"Mochdre Clinic",
"type":"Clinic",
"open24hrs":false,
"aAndeUnit":"None",
"address":"Mochdre Infants School, Station Road, Mochdre, Colwyn Bay, Conwy",
"postcode":"LL28 5EF",
"mainNumber":"",
"wards":[]
},
{
"id":60,
"name":"Plas Meddyg",
"type":"Clinic",
"open24hrs":false,
"aAndeUnit":"None",
"address":"Station Road, Ruthin, Denbighshire",
"postcode":"LL15 1BP",
"mainNumber":"01824 702255",
"wards":[]
},
{
"id":61,
"name":"Prestatyn Clinic",
"type":"Clinic",
"open24hrs":false,
"aAndeUnit":"None",
"address":"Kings Avenue, Prestatyn",
"postcode":"LL19 9AA",
"mainNumber":"01745 854546",
"wards":[]
},
{
"id":62,
"name":"Rhos-On-Sea Clinic",
"type":"Clinic",
"open24hrs":false,
"aAndeUnit":"None",
"address":"Parkway Community Centre, Parkway, Off Rhos Road, Rhos-On-Sea, Conwy",
"postcode":"LL28 4SD",
"mainNumber":"",
"wards":[]
},
{
"id":63,
"name":"Rhuddlan Clinic",
"type":"Clinic",
"open24hrs":false,
"aAndeUnit":"None",
"address":"Vicarage Lane, Rhuddlan, Denbighshire",
"postcode":"LL18 2UE",
"mainNumber":"01745 591039",
"wards":[]
},
{
"id":64,
"name":"Ruthin Clinic",
"type":"Clinic",
"open24hrs":false,
"aAndeUnit":"None",
"address":"Mount Street, Ruthin, Denbighshire",
"postcode":"LL15 1BG",
"mainNumber":"01824 702361",
"wards":[]
},
{
"id":65,
"name":"St Asaph Clinic",
"type":"Clinic",
"open24hrs":false,
"aAndeUnit":"None",
"address":"Pen-Y-Bont, The Roe, St Asaph, Denbighshire",
"postcode":"LL17 0LU",
"mainNumber":"01745 583596",
"wards":[]
},
{
"id":66,
"name":"Tan-Y-Marian Clinic",
"type":"Clinic",
"open24hrs":false,
"aAndeUnit":"None",
"address":"Tan-Y-Marian Community Room, Ysgol Tan-Y-Marian, Swn-Y-Don, Penmaenrhos, Conwy",
"postcode":"LL29 9LL",
"mainNumber":"",
"wards":[]
},
{
"id":67,
"name":"Aberaeron Integrated Care Centre",
"type":"Community",
"open24hrs":false,
"aAndeUnit":"None",
"address":"Vicerage Hill, Aberaeron, Ceredigion",
"postcode":"SA46 0DY",
"mainNumber":"01545 900100",
"wards":[]
},
{
"id":68,
"name":"Abergele Hospital",
"type":"Community",
"open24hrs":false,
"aAndeUnit":"None",
"address":"Llanfair Road, Abergele",
"postcode":"LL22 8DP",
"mainNumber":"01745 583910",
"wards":[]
},
{
"id":69,
"name":"Amethyst SARC",
"type":"Community",
"open24hrs":false,
"aAndeUnit":"None",
"address":"1-3 Bryn Eirias Close, off Elian Road, Colwyn Bay, Conwy",
"postcode":"LL29 8AB",
"mainNumber":"01492 805384",
"wards":[]
},
{
"id":70,
"name":"Amman Valley Hospital",
"type":"Community",
"open24hrs":false,
"aAndeUnit":"None",
"address":"Folland Road, Glanamman, Ammanford",
"postcode":"SA18 2BQ",
"mainNumber":"01269 822226",
"wards":[]
},
{
"id":71,
"name":"Bronllys Hospital",
"type":"Community",
"open24hrs":false,
"aAndeUnit":"None",
"address":"Bronllys, Brecon, Powys",
"postcode":"LD3 0LS",
"mainNumber":"01874 711255",
"wards":[]
},
{
"id":72,
"name":"Cardiff Royal Infirmary",
"type":"Community",
"open24hrs":false,
"aAndeUnit":"None",
"address":"Glossop Terrace, Cardiff",
"postcode":"CF24 0SZ",
"mainNumber":"029 2049 223",
"wards":[]
},
{
"id":73,
"name":"Chepstow Community Hospital",
"type":"Community",
"open24hrs":false,
"aAndeUnit":"None",
"address":"Tempest Way, Chepstow, Monmouthshire",
"postcode":"NP16 5YX",
"mainNumber":"01291 636636",
"wards":[]
},
{
"id":74,
"name":"Children's Hospital for Wales",
"type":"Community",
"open24hrs":false,
"aAndeUnit":"None",
"address":"University Hospital of Wales, Heath Park, Cardiff",
"postcode":"CF14 4XW",
"mainNumber":"029 2074 774",
"wards":[]
},
{
"id":75,
"name":"Chirk Community Hospital",
"type":"Community",
"open24hrs":false,
"aAndeUnit":"None",
"address":"off John's Street, Chirk, Wrexham",
"postcode":"LL14 5LN",
"mainNumber":"03000 850 00",
"wards":[]
},
{
"id":76,
"name":"Colwyn Bay Community Hospital",
"type":"Community",
"open24hrs":false,
"aAndeUnit":"None",
"address":"Hesketh Road, Colwyn Bay, Conwy",
"postcode":"LL29 8AY",
"mainNumber":"03000 850 01",
"wards":[]
},
{
"id":77,
"name":"County Hospital",
"type":"Community",
"open24hrs":false,
"aAndeUnit":"None",
"address":"Coed y Gric Road, Griffithstown, Pontypool, Gwent",
"postcode":"NP4 5YA",
"mainNumber":"01495 768768",
"wards":[]
},
{
"id":78,
"name":"Deeside Community Hospital",
"type":"Community",
"open24hrs":false,
"aAndeUnit":"None",
"address":"Plough Lane, Aston, Deeside, Flintshire",
"postcode":"CH5 1XS",
"mainNumber":"03000 850018",
"wards":[]
},
{
"id":79,
"name":"Dewi Sant Hospital",
"type":"Community",
"open24hrs":false,
"aAndeUnit":"None",
"address":"Albert Road, Pontypridd, Mid Glamorgan",
"postcode":"CF37 1LB",
"mainNumber":"01443 486222",
"wards":[]
},
{
"id":80,
"name":"Eryri Hospital",
"type":"Community",
"open24hrs":false,
"aAndeUnit":"None",
"address":"Lôn Parc, Caernarfon, Gwynedd",
"postcode":"LL55 2YE",
"mainNumber":"03000 850021",
"wards":[]
},
{
"id":81,
"name":"Glan Irfon Health and Social Care Centre (Builth Wells)",
"type":"Community",
"open24hrs":false,
"aAndeUnit":"None",
"address":"Love Lane, Builth Wells, Powys, Wales",
"postcode":"LD2 3DG",
"mainNumber":"01597 827770",
"wards":[]
},
{
"id":82,
"name":"Gorseinon Hospital",
"type":"Community",
"open24hrs":false,
"aAndeUnit":"None",
"address":"Gorseinon, Swansea",
"postcode":"SA4 4UU",
"mainNumber":"01792 897837",
"wards":[]
},
{
"id":83,
"name":"Knighton Hospital",
"type":"Community",
"open24hrs":false,
"aAndeUnit":"None",
"address":"Ffrydd Road, Knighton, Radnor, Powys",
"postcode":"LD7 1DF",
"mainNumber":"01547 528633",
"wards":[]
},
{
"id":84,
"name":"Llanidloes War Memorial Hospital",
"type":"Community",
"open24hrs":false,
"aAndeUnit":"None",
"address":"Eastgate Street, Llanidloes, Powys",
"postcode":"SY18 6HF",
"mainNumber":"01686 412121",
"wards":[]
},
{
"id":85,
"name":"Machynlleth Community Hospital (Bro Ddyfi)",
"type":"Community",
"open24hrs":false,
"aAndeUnit":"None",
"address":"Newtown Road, Machynlleth, Powys",
"postcode":"SY20 8AD",
"mainNumber":"01654 702266",
"wards":[]
},
{
"id":86,
"name":"Maesteg Community Hospital",
"type":"Community",
"open24hrs":false,
"aAndeUnit":"None",
"address":"Neath Road, Maesteg, Bridgend",
"postcode":"CF34 9PW",
"mainNumber":"01656 752752",
"wards":[]
},
{
"id":87,
"name":"Monnow Vale Health & Social Care Facility",
"type":"Community",
"open24hrs":false,
"aAndeUnit":"None",
"address":"Trefynwy Suite (Wards), Drybridge Park, Monmouth, Monmouthshire",
"postcode":"NP25 5BL",
"mainNumber":"01600 773061",
"wards":[]
},
{
"id":88,
"name":"Montgomery County Infirmary",
"type":"Community",
"open24hrs":false,
"aAndeUnit":"None",
"address":"Llanfair Road, Newtown, Powys",
"postcode":"SY16 2DW",
"mainNumber":"01686 617200",
"wards":[]
},
{
"id":89,
"name":"Royal Alexandra Hospital",
"type":"Community",
"open24hrs":false,
"aAndeUnit":"None",
"address":"Marine Drive, Rhyl, Denbighshire",
"postcode":"LL18 3AS",
"mainNumber":"03000 850024",
"wards":[]
},
{
"id":90,
"name":"Ruthin Community Hospital",
"type":"Community",
"open24hrs":false,
"aAndeUnit":"None",
"address":"Llanrhydd Street, Ruthin, Denbighshire",
"postcode":"LL15 1PS",
"mainNumber":"03000 850 02",
"wards":[]
},
{
"id":91,
"name":"South Pembrokeshire Hospital",
"type":"Community",
"open24hrs":false,
"aAndeUnit":"None",
"address":"Fort Road, Pembroke Dock, Pembrokeshire",
"postcode":"SA72 6SY",
"mainNumber":"01646 682114",
"wards":[]
},
{
"id":92,
"name":"St. Davids Hospital (Cardiff)",
"type":"Community",
"open24hrs":false,
"aAndeUnit":"None",
"address":"Cowbridge Road East, Cardiff",
"postcode":"CF11 9XB",
"mainNumber":"029 2053 666",
"wards":[]
},
{
"id":93,
"name":"Tregaron Hospital",
"type":"Community",
"open24hrs":false,
"aAndeUnit":"None",
"address":"Tregaron",
"postcode":"SY25 6JP",
"mainNumber":"01974 298203",
"wards":[]
},
{
"id":94,
"name":"Ysbyty George Thomas",
"type":"Community",
"open24hrs":false,
"aAndeUnit":"None",
"address":"Cwmparc Road, Ystrad Fechan, Treorchy, Mid Glamorgan",
"postcode":"CF42 6YG",
"mainNumber":"01443 430022",
"wards":[]
},
{
"id":95,
"name":"Cefni Hospital",
"type":"Community Hospital: Elderly Mental Infirm (EMI)",
"open24hrs":false,
"aAndeUnit":"None",
"address":"Llangefni, Gwynedd",
"postcode":"LL77 7PP",
"mainNumber":"03000 850016",
"wards":[]
},
{
"id":96,
"name":"Cimla Hospital",
"type":"Community Hospital: Elderly Mental Infirm (EMI)",
"open24hrs":false,
"aAndeUnit":"None",
"address":"Cimla, Neath",
"postcode":"SA11 3SU",
"mainNumber":"01639 862000",
"wards":[]
},
{
"id":97,
"name":"Gellinudd Hospital",
"type":"Community Hospital: Elderly Mental Infirm (EMI)",
"open24hrs":false,
"aAndeUnit":"None",
"address":"Lon Catwg, Gellinudd, Pontardawe, Swansea",
"postcode":"SA8 3DX",
"mainNumber":"01792 862221",
"wards":[]
},
{
"id":98,
"name":"Brynmair Clinic Day Hospital",
"type":"Day Hospital",
"open24hrs":false,
"aAndeUnit":"None",
"address":"11 Goring Road, Llanelli, Carmarthenshire",
"postcode":"SA15 3HF",
"mainNumber":"01554 772768",
"wards":[]
},
{
"id":99,
"name":"Gorwelion Day Hospital",
"type":"Day Hospital",
"open24hrs":false,
"aAndeUnit":"None",
"address":"Llanbadarn Road, Aberystwyth, Ceredigion",
"postcode":"SY23 1HB",
"mainNumber":"01970 615448",
"wards":[]
},
{
"id":100,
"name":"Hafod Mental Health Resource Centre",
"type":"Day Hospital",
"open24hrs":false,
"aAndeUnit":"None",
"address":"Beechwood Road, Rhyl, Denbighshire",
"postcode":"LL18 1SG",
"mainNumber":"01745 443050",
"wards":[]
},
{
"id":101,
"name":"Nant y Glyn Community Mental Health Team",
"type":"Day Hospital",
"open24hrs":false,
"aAndeUnit":"None",
"address":"10 Nant Y Glyn Road, Colwyn Bay, Conwy",
"postcode":"LL29 7RB",
"mainNumber":"03000 850049",
"wards":[]
},
{
"id":102,
"name":"Swn-y-Gwynt Day Hospital",
"type":"Day Hospital",
"open24hrs":false,
"aAndeUnit":"None",
"address":"Tir-y-Dail Lane, Ammanford, Carmarthenshire",
"postcode":"SA18 3AS",
"mainNumber":"01269 595473",
"wards":[]
},
{
"id":103,
"name":"Singleton Hospital",
"type":" Major acute",
"open24hrs":false,
"aAndeUnit":"None",
"address":"Sketty Lane, Sketty, Swansea",
"postcode":"SA2 8QA",
"mainNumber":"01792 205666",
"wards":[]
},
{
"id":104,
"name":"University Hospital Llandough",
"type":" Major acute",
"open24hrs":false,
"aAndeUnit":"None",
"address":"Penlan Road, Penarth",
"postcode":"CF64 2XX",
"mainNumber":"029 2071 171",
"wards":[]
},
{
"id":105,
"name":"Llanfrechfa Grange",
"type":"Psychiatric: Learning disability",
"open24hrs":false,
"aAndeUnit":"None",
"address":"Cwmbran",
"postcode":"NP44 8YN",
"mainNumber":"01633 623623",
"wards":[]
},
{
"id":106,
"name":"Llwyneryr Unit",
"type":"Psychiatric: Learning disability",
"open24hrs":false,
"aAndeUnit":"None",
"address":"Learning Disability Services, Clasemont Road, Morriston, Swansea",
"postcode":"SA6 6AH",
"mainNumber":"01792 784000",
"wards":[]
},
{
"id":107,
"name":"Ablett Unit",
"type":"Psychiatric: Mental illness",
"open24hrs":false,
"aAndeUnit":"None",
"address":"Ysbyty Glan Clwyd, Bodelwyddan, Rhyl",
"postcode":"LL18 5UT",
"mainNumber":"",
"wards":[]
},
{
"id":108,
"name":"Bodnant EMI Unit",
"type":"Psychiatric: Mental illness",
"open24hrs":false,
"aAndeUnit":"None",
"address":"Maesdu Road, Llandudno",
"postcode":"LL30 1QY",
"mainNumber":"03000 850038",
"wards":[]
},
{
"id":109,
"name":"Bro Cerwyn / St Brynach Day Hospitals",
"type":"Psychiatric: Mental illness",
"open24hrs":false,
"aAndeUnit":"None",
"address":"Fishguard Road, Haverfordwest, Pembrokeshire",
"postcode":"SA61 2PZ",
"mainNumber":"01437 773157",
"wards":[]
},
{
"id":110,
"name":"Bryn Hesketh Unit",
"type":"Psychiatric: Mental illness",
"open24hrs":false,
"aAndeUnit":"None",
"address":"Hesketh Road, Colwyn Bay, Conwy",
"postcode":"LL29 8AT",
"mainNumber":"03000 850017",
"wards":[]
},
{
"id":111,
"name":"Cefn Coed Hospital",
"type":"Psychiatric: Mental illness",
"open24hrs":false,
"aAndeUnit":"None",
"address":"Cockett, Swansea",
"postcode":"SA2 0GH",
"mainNumber":"01792 561155",
"wards":[]
},
{
"id":112,
"name":"Cwm Coch Unit",
"type":"Psychiatric: Mental illness",
"open24hrs":false,
"aAndeUnit":"None",
"address":"Ysbyty Aneurin Bevan Hospital, Festival Drive, Ebbw Vale, Blaenau Gwent",
"postcode":"NP23 6GL",
"mainNumber":"01495 363222",
"wards":[]
},
{
"id":113,
"name":"Garngoch Hospital",
"type":"Psychiatric: Mental illness",
"open24hrs":false,
"aAndeUnit":"None",
"address":"Ty Garngoch, Hospital Road, Gorseinon, Swansea",
"postcode":"SA4 4LH",
"mainNumber":"01792 531200",
"wards":[]
},
{
"id":114,
"name":"Glan Traeth",
"type":"Psychiatric: Mental illness",
"open24hrs":false,
"aAndeUnit":"None",
"address":"Royal Alexandra Hospital, Marine Drive, Rhyl, Denbighshire",
"postcode":"LL18 3AS",
"mainNumber":"03000 856205",
"wards":[]
},
{
"id":115,
"name":"Glanrhyd Hospital",
"type":"Psychiatric: Mental illness",
"open24hrs":false,
"aAndeUnit":"None",
"address":"Tondu Road, Bridgend, Mid Glamorgan",
"postcode":"CF31 4LN",
"mainNumber":"01656 752752",
"wards":[]
},
{
"id":116,
"name":"Local Primary Mental Health Support Services, Tonna Resource Centre",
"type":"Psychiatric: Mental illness",
"open24hrs":false,
"aAndeUnit":"None",
"address":"Tonna",
"postcode":"SA11 3LX",
"mainNumber":"01639 862862",
"wards":[]
},
{
"id":117,
"name":"Maindiff Court Hospital",
"type":"Psychiatric: Mental illness",
"open24hrs":false,
"aAndeUnit":"None",
"address":"Ross Road, Abergavenny, Monmouthshire",
"postcode":"NP7 8NF",
"mainNumber":"01873 735500",
"wards":[]
},
{
"id":118,
"name":"North Wales Adolescent Service",
"type":"Psychiatric: Mental illness",
"open24hrs":false,
"aAndeUnit":"None",
"address":"Abergele Hospital, Llanfair Road, Abergele",
"postcode":"LL22 8DP",
"mainNumber":"03000 850056",
"wards":[]
},
{
"id":119,
"name":"St. Cadocs Hospital",
"type":"Psychiatric: Mental illness",
"open24hrs":false,
"aAndeUnit":"None",
"address":"Lodge Road, Caerleon",
"postcode":"NP18 3XQ",
"mainNumber":"01633 436700",
"wards":[]
},
{
"id":120,
"name":"Talygarn Unit",
"type":"Psychiatric: Mental illness",
"open24hrs":false,
"aAndeUnit":"None",
"address":"Grounds of County Hospital, Coed-y-Gric Road, Griffithstown, Pontypool",
"postcode":"NP4 5YA",
"mainNumber":"01495 768768",
"wards":[]
},
{
"id":121,
"name":"Tonna Hospital",
"type":"Psychiatric: Mental illness",
"open24hrs":false,
"aAndeUnit":"None",
"address":"Tonna Uchaf, Neath",
"postcode":"SA11 3LX",
"mainNumber":"01639 862921",
"wards":[]
},
{
"id":122,
"name":"Whitchurch Hospital",
"type":"Psychiatric: Mental illness",
"open24hrs":false,
"aAndeUnit":"None",
"address":"Whitchurch, Cardiff",
"postcode":"CF14 7XB",
"mainNumber":"029 2069 319",
"wards":[]
},
{
"id":123,
"name":"Ysbyty'r Tri Chwm",
"type":"Psychiatric: Mental illness",
"open24hrs":false,
"aAndeUnit":"None",
"address":"College Road, Blaenau Gwent",
"postcode":"NP23 6GT",
"mainNumber":"01495 353200",
"wards":[]
},
{
"id":124,
"name":"Bryn y Neuadd Hospital",
"type":"Psychiatric: Mental illness / Learning disability",
"open24hrs":false,
"aAndeUnit":"None",
"address":"Aber Road, Llanfairfechan, Conwy",
"postcode":"LL33 0HH",
"mainNumber":"01248 682682",
"wards":[]
},
{
"id":125,
"name":"Cwm Seren, Tudor House & Ty Bryn",
"type":"Psychiatric: Mental illness / Learning disability",
"open24hrs":false,
"aAndeUnit":"None",
"address":"Hafan Derwen, Jobswell Road, Carmarthen",
"postcode":"SA31 3HB",
"mainNumber":"01267 235151",
"wards":[]
},
{
"id":126,
"name":"North Wales Cancer Treatment Centre",
"type":"Specialist acute",
"open24hrs":false,
"aAndeUnit":"None",
"address":"Ysbyty Glan Clwyd, Rhuddlan Road, Bodelwyddan, Rhyl",
"postcode":"LL18 5UJ",
"mainNumber":"01745 445231",
"wards":[]
},
{
"id":127,
"name":"Rookwood Hospital",
"type":"Specialist acute",
"open24hrs":false,
"aAndeUnit":"None",
"address":"18-20 Fairwater Road, Llandaff, Cardiff",
"postcode":"CF5 2YN",
"mainNumber":"029 2041 541",
"wards":[]
},
{
"id":128,
"name":"University Dental Hospital",
"type":"Specialist acute",
"open24hrs":false,
"aAndeUnit":"None",
"address":"Heath Park, Cardiff",
"postcode":"CF14 4XW",
"mainNumber":"029 2074 774",
"wards":[]
}
]
}